[{"OBJECT_NAME":"STARLINK-11362 [DTC]","OBJECT_ID":"2024-184D","EPOCH":"2026-03-08T12:11:36.194784","MEAN_MOTION":15.69709192,"ECCENTRICITY":8.77e-5,"INCLINATION":53.1598,"RA_OF_ASC_NODE":241.9486,"ARG_OF_PERICENTER":81.5242,"MEAN_ANOMALY":278.5875,"EPHEMERIS_TYPE":0,"CLASSIFICATION_TYPE":"U","NORAD_CAT_ID":61535,"ELEMENT_SET_NO":999,"REV_AT_EPOCH":8023,"BSTAR":-3.8832e-6,"MEAN_MOTION_DOT":-1.059e-5,"MEAN_MOTION_DDOT":0},{"OBJECT_NAME":"STARLINK-11295 [DTC]","OBJECT_ID":"2024-184E","EPOCH":"2026-03-08T12:18:40.607136","MEAN_MOTION":15.69700102,"ECCENTRICITY":0.0001867,"INCLINATION":53.1579,"RA_OF_ASC_NODE":241.9832,"ARG_OF_PERICENTER":88.4511,"MEAN_ANOMALY":271.6721,"EPHEMERIS_TYPE":0,"CLASSIFICATION_TYPE":"U","NORAD_CAT_ID":61536,"ELEMENT_SET_NO":999,"REV_AT_EPOCH":8023,"BSTAR":2.5276e-5,"MEAN_MOTION_DOT":2.472e-5,"MEAN_MOTION_DDOT":0},{"OBJECT_NAME":"STARLINK-11331 [DTC]","OBJECT_ID":"2024-184F","EPOCH":"2026-03-08T12:00:01.999296","MEAN_MOTION":15.86450472,"ECCENTRICITY":0.0008739,"INCLINATION":53.1535,"RA_OF_ASC_NODE":240.8793,"ARG_OF_PERICENTER":305.5176,"MEAN_ANOMALY":184.7657,"EPHEMERIS_TYPE":0,"CLASSIFICATION_TYPE":"U","NORAD_CAT_ID":61537,"ELEMENT_SET_NO":999,"REV_AT_EPOCH":601,"BSTAR":0.0012193,"MEAN_MOTION_DOT":0.00325338,"MEAN_MOTION_DDOT":0},{"OBJECT_NAME":"STARLINK-11325 [DTC]","OBJECT_ID":"2024-184G","EPOCH":"2026-03-08T11:57:28.774944","MEAN_MOTION":15.69699439,"ECCENTRICITY":0.0001646,"INCLINATION":53.1589,"RA_OF_ASC_NODE":241.8851,"ARG_OF_PERICENTER":70.8369,"MEAN_ANOMALY":289.2827,"EPHEMERIS_TYPE":0,"CLASSIFICATION_TYPE":"U","NORAD_CAT_ID":61538,"ELEMENT_SET_NO":999,"REV_AT_EPOCH":8023,"BSTAR":4.4046e-7,"MEAN_MOTION_DOT":-5.36e-6,"MEAN_MOTION_DDOT":0},{"OBJECT_NAME":"STARLINK-11332 [DTC]","OBJECT_ID":"2024-184H","EPOCH":"2026-03-08T11:50:23.436384","MEAN_MOTION":15.6981458,"ECCENTRICITY":0.0001256,"INCLINATION":53.1592,"RA_OF_ASC_NODE":241.8732,"ARG_OF_PERICENTER":114.0233,"MEAN_ANOMALY":246.0916,"EPHEMERIS_TYPE":0,"CLASSIFICATION_TYPE":"U","NORAD_CAT_ID":61539,"ELEMENT_SET_NO":999,"REV_AT_EPOCH":8023,"BSTAR":-0.0002116,"MEAN_MOTION_DOT":-0.00026255,"MEAN_MOTION_DDOT":0},{"OBJECT_NAME":"STARLINK-11350 [DTC]","OBJECT_ID":"2024-184J","EPOCH":"2026-03-07T18:54:48.721824","MEAN_MOTION":15.69709239,"ECCENTRICITY":6.141e-5,"INCLINATION":53.1589,"RA_OF_ASC_NODE":245.2692,"ARG_OF_PERICENTER":81.012,"MEAN_ANOMALY":279.0967,"EPHEMERIS_TYPE":0,"CLASSIFICATION_TYPE":"U","NORAD_CAT_ID":61540,"ELEMENT_SET_NO":999,"REV_AT_EPOCH":8012,"BSTAR":3.0932032e-5,"MEAN_MOTION_DOT":3.161e-5,"MEAN_MOTION_DDOT":0},{"OBJECT_NAME":"STARLINK-11357 [DTC]","OBJECT_ID":"2024-184K","EPOCH":"2026-03-08T11:36:25.908480","MEAN_MOTION":15.69705505,"ECCENTRICITY":6.76e-5,"INCLINATION":53.1596,"RA_OF_ASC_NODE":242.5204,"ARG_OF_PERICENTER":112.4224,"MEAN_ANOMALY":247.6865,"EPHEMERIS_TYPE":0,"CLASSIFICATION_TYPE":"U","NORAD_CAT_ID":61541,"ELEMENT_SET_NO":999,"REV_AT_EPOCH":8022,"BSTAR":-1.4032e-5,"MEAN_MOTION_DOT":-2.287e-5,"MEAN_MOTION_DDOT":0},{"OBJECT_NAME":"STARLINK-11322 [DTC]","OBJECT_ID":"2024-184L","EPOCH":"2026-03-08T11:29:22.155360","MEAN_MOTION":15.69709406,"ECCENTRICITY":6.54e-5,"INCLINATION":53.1599,"RA_OF_ASC_NODE":242.4858,"ARG_OF_PERICENTER":93.5843,"MEAN_ANOMALY":266.525,"EPHEMERIS_TYPE":0,"CLASSIFICATION_TYPE":"U","NORAD_CAT_ID":61542,"ELEMENT_SET_NO":999,"REV_AT_EPOCH":8128,"BSTAR":-3.4393e-7,"MEAN_MOTION_DOT":-6.29e-6,"MEAN_MOTION_DDOT":0},{"OBJECT_NAME":"STARLINK-11364 [DTC]","OBJECT_ID":"2024-184M","EPOCH":"2026-03-08T11:22:18.117120","MEAN_MOTION":15.69706932,"ECCENTRICITY":8.03e-5,"INCLINATION":53.1571,"RA_OF_ASC_NODE":242.4529,"ARG_OF_PERICENTER":49.9603,"MEAN_ANOMALY":310.1485,"EPHEMERIS_TYPE":0,"CLASSIFICATION_TYPE":"U","NORAD_CAT_ID":61543,"ELEMENT_SET_NO":999,"REV_AT_EPOCH":8022,"BSTAR":-4.4684e-6,"MEAN_MOTION_DOT":-1.129e-5,"MEAN_MOTION_DDOT":0},{"OBJECT_NAME":"STARLINK-11349 [DTC]","OBJECT_ID":"2024-184N","EPOCH":"2026-03-08T11:15:13.963104","MEAN_MOTION":15.69691393,"ECCENTRICITY":0.0001058,"INCLINATION":53.1577,"RA_OF_ASC_NODE":242.4178,"ARG_OF_PERICENTER":91.9332,"MEAN_ANOMALY":268.1807,"EPHEMERIS_TYPE":0,"CLASSIFICATION_TYPE":"U","NORAD_CAT_ID":61544,"ELEMENT_SET_NO":999,"REV_AT_EPOCH":8022,"BSTAR":1.0578e-5,"MEAN_MOTION_DOT":6.92e-6,"MEAN_MOTION_DDOT":0},{"OBJECT_NAME":"STARLINK-32406","OBJECT_ID":"2024-184P","EPOCH":"2026-03-08T07:18:05.573952","MEAN_MOTION":15.30270553,"ECCENTRICITY":4.93e-5,"INCLINATION":53.1612,"RA_OF_ASC_NODE":20.4643,"ARG_OF_PERICENTER":142.2323,"MEAN_ANOMALY":217.8712,"EPHEMERIS_TYPE":0,"CLASSIFICATION_TYPE":"U","NORAD_CAT_ID":61545,"ELEMENT_SET_NO":999,"REV_AT_EPOCH":7829,"BSTAR":-0.00062575,"MEAN_MOTION_DOT":-0.00018885,"MEAN_MOTION_DDOT":0},{"OBJECT_NAME":"STARLINK-32445","OBJECT_ID":"2024-184Q","EPOCH":"2026-03-08T06:02:19.281120","MEAN_MOTION":15.30188144,"ECCENTRICITY":9.93e-5,"INCLINATION":53.1618,"RA_OF_ASC_NODE":20.849,"ARG_OF_PERICENTER":100.6629,"MEAN_ANOMALY":259.4483,"EPHEMERIS_TYPE":0,"CLASSIFICATION_TYPE":"U","NORAD_CAT_ID":61546,"ELEMENT_SET_NO":999,"REV_AT_EPOCH":7828,"BSTAR":-3.9084e-5,"MEAN_MOTION_DOT":-1.516e-5,"MEAN_MOTION_DDOT":0},{"OBJECT_NAME":"STARLINK-32411","OBJECT_ID":"2024-184R","EPOCH":"2026-03-08T07:13:34.943232","MEAN_MOTION":15.3018713,"ECCENTRICITY":9.04e-5,"INCLINATION":53.1618,"RA_OF_ASC_NODE":20.443,"ARG_OF_PERICENTER":83.1157,"MEAN_ANOMALY":276.9947,"EPHEMERIS_TYPE":0,"CLASSIFICATION_TYPE":"U","NORAD_CAT_ID":61547,"ELEMENT_SET_NO":999,"REV_AT_EPOCH":7829,"BSTAR":-2.3954e-5,"MEAN_MOTION_DOT":-1.068e-5,"MEAN_MOTION_DDOT":0},{"OBJECT_NAME":"STARLINK-32424","OBJECT_ID":"2024-184S","EPOCH":"2026-03-08T07:31:50.432160","MEAN_MOTION":15.30171589,"ECCENTRICITY":0.0001366,"INCLINATION":53.1623,"RA_OF_ASC_NODE":20.5231,"ARG_OF_PERICENTER":82.3894,"MEAN_ANOMALY":277.7262,"EPHEMERIS_TYPE":0,"CLASSIFICATION_TYPE":"U","NORAD_CAT_ID":61548,"ELEMENT_SET_NO":999,"REV_AT_EPOCH":7829,"BSTAR":-9.4016e-5,"MEAN_MOTION_DOT":-3.14e-5,"MEAN_MOTION_DDOT":0},{"OBJECT_NAME":"STARLINK-32389","OBJECT_ID":"2024-184T","EPOCH":"2026-03-08T04:00:54.742464","MEAN_MOTION":15.30190406,"ECCENTRICITY":0.0001026,"INCLINATION":53.1626,"RA_OF_ASC_NODE":21.0325,"ARG_OF_PERICENTER":71.4827,"MEAN_ANOMALY":288.6285,"EPHEMERIS_TYPE":0,"CLASSIFICATION_TYPE":"U","NORAD_CAT_ID":61549,"ELEMENT_SET_NO":999,"REV_AT_EPOCH":7827,"BSTAR":-6.4619e-6,"MEAN_MOTION_DOT":-5.5e-6,"MEAN_MOTION_DDOT":0},{"OBJECT_NAME":"STARLINK-32476","OBJECT_ID":"2024-184U","EPOCH":"2026-03-08T05:53:11.220000","MEAN_MOTION":15.30188341,"ECCENTRICITY":0.0001141,"INCLINATION":53.1618,"RA_OF_ASC_NODE":20.8053,"ARG_OF_PERICENTER":97.9729,"MEAN_ANOMALY":262.1401,"EPHEMERIS_TYPE":0,"CLASSIFICATION_TYPE":"U","NORAD_CAT_ID":61550,"ELEMENT_SET_NO":999,"REV_AT_EPOCH":7828,"BSTAR":-0.00012767,"MEAN_MOTION_DOT":-4.137e-5,"MEAN_MOTION_DDOT":0}]
