STARLINK-11362 [DTC]    
1 61535U 24184D   26067.50805781 -.00001059  00000+0 -38832-5 0  9999
2 61535  53.1598 241.9486 0000877  81.5242 278.5875 15.69709192 80235
STARLINK-11295 [DTC]    
1 61536U 24184E   26067.51296999  .00002472  00000+0  25276-4 0  9991
2 61536  53.1579 241.9832 0001867  88.4511 271.6721 15.69700102 80231
STARLINK-11331 [DTC]    
1 61537U 24184F   26067.50002314  .00325338  00000+0  12193-2 0  9998
2 61537  53.1535 240.8793 0008739 305.5176 184.7657 15.86450472  6010
STARLINK-11325 [DTC]    
1 61538U 24184G   26067.49824971 -.00000536  00000+0  44046-6 0  9995
2 61538  53.1589 241.8851 0001646  70.8369 289.2827 15.69699439 80237
STARLINK-11332 [DTC]    
1 61539U 24184H   26067.49332681 -.00026255  00000+0 -21160-3 0  9994
2 61539  53.1592 241.8732 0001256 114.0233 246.0916 15.69814580 80234
STARLINK-11350 [DTC]    
1 61540U 24184J   26066.78806391  .00003161  00000+0  30932-4 0  9998
2 61540  53.1589 245.2692 0000614  81.0120 279.0967 15.69709239 80124
STARLINK-11357 [DTC]    
1 61541U 24184K   26067.48363320 -.00002287  00000+0 -14032-4 0  9990
2 61541  53.1596 242.5204 0000676 112.4224 247.6865 15.69705505 80225
STARLINK-11322 [DTC]    
1 61542U 24184L   26067.47872865 -.00000629  00000+0 -34393-6 0  9991
2 61542  53.1599 242.4858 0000654  93.5843 266.5250 15.69709406 81284
STARLINK-11364 [DTC]    
1 61543U 24184M   26067.47382080 -.00001129  00000+0 -44684-5 0  9996
2 61543  53.1571 242.4529 0000803  49.9603 310.1485 15.69706932 80225
STARLINK-11349 [DTC]    
1 61544U 24184N   26067.46891161  .00000692  00000+0  10578-4 0  9997
2 61544  53.1577 242.4178 0001058  91.9332 268.1807 15.69691393 80225
STARLINK-32406          
1 61545U 24184P   26067.30423118 -.00018885  00000+0 -62575-3 0  9992
2 61545  53.1612  20.4643 0000493 142.2323 217.8712 15.30270553 78298
STARLINK-32445          
1 61546U 24184Q   26067.25161205 -.00001516  00000+0 -39084-4 0  9996
2 61546  53.1618  20.8490 0000993 100.6629 259.4483 15.30188144 78281
STARLINK-32411          
1 61547U 24184R   26067.30109888 -.00001068  00000+0 -23954-4 0  9993
2 61547  53.1618  20.4430 0000904  83.1157 276.9947 15.30187130 78299
STARLINK-32424          
1 61548U 24184S   26067.31377815 -.00003140  00000+0 -94016-4 0  9992
2 61548  53.1623  20.5231 0001366  82.3894 277.7262 15.30171589 78298
STARLINK-32389          
1 61549U 24184T   26067.16730026 -.00000550  00000+0 -64619-5 0  9992
2 61549  53.1626  21.0325 0001026  71.4827 288.6285 15.30190406 78273
STARLINK-32476          
1 61550U 24184U   26067.24526875 -.00004137  00000+0 -12767-3 0  9998
2 61550  53.1618  20.8053 0001141  97.9729 262.1401 15.30188341 78286
